IRIDIUM 26              
1 24903U 97043A   25215.94939270  .00000275  00000+0  85701-4 0  9997
2 24903  86.3927  90.5549 0001949  84.3568 275.7851 14.37174596463605
IRIDIUM 22              
1 24907U 97043E   25216.19747482  .00000286  00000+0  91850-4 0  9995
2 24907  86.3934  94.0333 0002065  88.3475 271.7958 14.35983826463659
DUMMY MASS 1            
1 24925U 97048A   25215.79216891  .00000357  00000+0  36738-4 0  9993
2 24925  86.3351 113.3241 0006165 359.5783   0.5435 14.87019043512207
DUMMY MASS 2            
1 24926U 97048B   25215.82955601  .00000362  00000+0  37494-4 0  9993
2 24926  86.3353 114.9232 0007399   8.5391 351.5958 14.86770946511981
IRIDIUM 29              
1 24944U 97051A   25215.85499472  .00000340  00000+0  10930-3 0  9990
2 24944  86.3977 123.9128 0002346  88.1629 271.9837 14.36500129460110
IRIDIUM 33              
1 24946U 97051C   25216.23785461  .00000276  00000+0  90232-4 0  9993
2 24946  86.3893 123.0166 0005798 287.8412  72.2152 14.34917828459648
IRIDIUM 28              
1 24948U 97051E   25216.21609998  .00000298  00000+0  93079-4 0  9999
2 24948  86.3979 121.2497 0001708  78.5673 281.5716 14.37413862460817
IRIDIUM 36              
1 24967U 97056C   25215.75431457  .00000339  00000+0  10651-3 0  9996
2 24967  86.4019 153.0333 0002028  90.2376 269.9054 14.37640664459054
